STARLINK-37066          
1 68081U 26042N   26092.24921389  .00396049  00000+0  24584-2 0  9999
2 68081  53.1599  77.1153 0001339 109.6084 250.5081 15.75334718  5803
STARLINK-37054          
1 68082U 26042P   26092.25003472 -.01920663  00000+0 -12627-1 0  9997
2 68082  53.1581  76.5924 0001101 110.4395 148.0720 15.78203481  5846
STARLINK-37065          
1 68083U 26042Q   26092.12686480  .00388576  00000+0  24082-2 0  9997
2 68083  53.1589  77.7758 0001359 143.6213 216.4900 15.75393003  5785
STARLINK-37037          
1 68084U 26042R   26092.10870967  .00295748  00000+0  18575-2 0  9999
2 68084  53.1581  77.6555 0001872 152.3590 207.7530 15.75352970  5787
STARLINK-37068          
1 68085U 26042S   26092.22231157  .00141521  00000+0  90859-3 0  9990
2 68085  53.1595  76.9349 0001170  86.1932 273.9222 15.75325279  5809
STARLINK-37067          
1 68086U 26042T   26092.25003472  .00055200  00000+0  36262-3 0  9997
2 68086  53.1594  76.5880 0001294  80.5025 179.9210 15.75194400  5849
STARLINK-37062          
1 68087U 26042U   26092.25003472 -.00103042  00000+0 -67550-3 0  9992
2 68087  53.1591  76.6368 0001309 102.5053 134.0247 15.75262414  5845
STARLINK-37059          
1 68088U 26042V   26092.21744417  .00262807  00000+0  16582-2 0  9991
2 68088  53.1599  76.9029 0001062 100.9991 259.1149 15.75345156  5801
STARLINK-37004          
1 68089U 26042W   26092.22198296  .00197794  00000+0  12603-2 0  9993
2 68089  53.1595  76.9331 0000806  84.4715 275.6397 15.75315476  5809
STARLINK-36320          
1 68090U 26042X   26086.15385821  .00375248  00000+0  23254-2 0  9998
2 68090  53.1593 107.3571 0002763 139.4736 220.6491 15.75432358  4849
STARLINK-36324          
1 68091U 26042Y   26092.18577496  .01201852  00000+0  66263-2 0  9997
2 68091  53.1582  77.4309 0005133 273.4770  86.5663 15.76737046  5793
STARLINK-36896          
1 68092U 26042Z   26092.25003472 -.00140738  00000+0 -92744-3 0  9994
2 68092  53.1582  77.0068 0001130  89.7105 326.5408 15.75283445  5843
